[{"OBJECT_NAME":"INTELSAT 30 (IS-30)","OBJECT_ID":"2014-062A","EPOCH":"2026-04-05T12:17:35.077920","MEAN_MOTION":1.00272042,"ECCENTRICITY":0.0001504,"INCLINATION":0.0127,"RA_OF_ASC_NODE":223.2415,"ARG_OF_PERICENTER":33.8601,"MEAN_ANOMALY":26.073,"EPHEMERIS_TYPE":0,"CLASSIFICATION_TYPE":"U","NORAD_CAT_ID":40271,"ELEMENT_SET_NO":999,"REV_AT_EPOCH":606,"BSTAR":0,"MEAN_MOTION_DOT":-1.49e-6,"MEAN_MOTION_DDOT":0},{"OBJECT_NAME":"DIRECTV 14","OBJECT_ID":"2014-078B","EPOCH":"2026-04-05T13:59:06.455040","MEAN_MOTION":1.00271427,"ECCENTRICITY":7.76e-5,"INCLINATION":0.0111,"RA_OF_ASC_NODE":180.3848,"ARG_OF_PERICENTER":300.5033,"MEAN_ANOMALY":183.5263,"EPHEMERIS_TYPE":0,"CLASSIFICATION_TYPE":"U","NORAD_CAT_ID":40333,"ELEMENT_SET_NO":999,"REV_AT_EPOCH":4131,"BSTAR":0,"MEAN_MOTION_DOT":-1.24e-6,"MEAN_MOTION_DDOT":0},{"OBJECT_NAME":"DIRECTV 15","OBJECT_ID":"2015-026A","EPOCH":"2026-04-05T13:58:06.549600","MEAN_MOTION":1.00272151,"ECCENTRICITY":5.48e-5,"INCLINATION":0.0323,"RA_OF_ASC_NODE":93.6151,"ARG_OF_PERICENTER":65.3431,"MEAN_ANOMALY":141.5706,"EPHEMERIS_TYPE":0,"CLASSIFICATION_TYPE":"U","NORAD_CAT_ID":40663,"ELEMENT_SET_NO":999,"REV_AT_EPOCH":3973,"BSTAR":0,"MEAN_MOTION_DOT":-1.01e-6,"MEAN_MOTION_DDOT":0},{"OBJECT_NAME":"SKY MEXICO-1","OBJECT_ID":"2015-026B","EPOCH":"2026-04-05T19:12:51.454656","MEAN_MOTION":1.00271575,"ECCENTRICITY":0.0002633,"INCLINATION":0.0221,"RA_OF_ASC_NODE":110.8005,"ARG_OF_PERICENTER":291.2999,"MEAN_ANOMALY":1.3998,"EPHEMERIS_TYPE":0,"CLASSIFICATION_TYPE":"U","NORAD_CAT_ID":40664,"ELEMENT_SET_NO":999,"REV_AT_EPOCH":3972,"BSTAR":0,"MEAN_MOTION_DOT":-2.32e-6,"MEAN_MOTION_DDOT":0},{"OBJECT_NAME":"INTELSAT 34 (IS-34)","OBJECT_ID":"2015-039A","EPOCH":"2026-04-05T05:38:11.602464","MEAN_MOTION":1.00271776,"ECCENTRICITY":5.69e-6,"INCLINATION":0.0228,"RA_OF_ASC_NODE":272.6147,"ARG_OF_PERICENTER":208.6149,"MEAN_ANOMALY":101.3653,"EPHEMERIS_TYPE":0,"CLASSIFICATION_TYPE":"U","NORAD_CAT_ID":40874,"ELEMENT_SET_NO":999,"REV_AT_EPOCH":3889,"BSTAR":0,"MEAN_MOTION_DOT":-2.84e-6,"MEAN_MOTION_DDOT":0},{"OBJECT_NAME":"INTELSAT 31 (IS-31)","OBJECT_ID":"2016-035A","EPOCH":"2026-04-05T14:00:21.333600","MEAN_MOTION":1.00272246,"ECCENTRICITY":0.0001503,"INCLINATION":0.0128,"RA_OF_ASC_NODE":223.2111,"ARG_OF_PERICENTER":34.4999,"MEAN_ANOMALY":51.227,"EPHEMERIS_TYPE":0,"CLASSIFICATION_TYPE":"U","NORAD_CAT_ID":41581,"ELEMENT_SET_NO":999,"REV_AT_EPOCH":3595,"BSTAR":0,"MEAN_MOTION_DOT":-1.49e-6,"MEAN_MOTION_DDOT":0},{"OBJECT_NAME":"INTELSAT 36 (IS-36)","OBJECT_ID":"2016-053A","EPOCH":"2026-04-05T14:46:54.370848","MEAN_MOTION":1.00271531,"ECCENTRICITY":0.0001038,"INCLINATION":0.0117,"RA_OF_ASC_NODE":234.1921,"ARG_OF_PERICENTER":101.2785,"MEAN_ANOMALY":148.6671,"EPHEMERIS_TYPE":0,"CLASSIFICATION_TYPE":"U","NORAD_CAT_ID":41747,"ELEMENT_SET_NO":999,"REV_AT_EPOCH":3523,"BSTAR":0,"MEAN_MOTION_DOT":-2.3e-7,"MEAN_MOTION_DDOT":0},{"OBJECT_NAME":"INTELSAT 32E (IS-32E)","OBJECT_ID":"2017-007B","EPOCH":"2026-04-05T19:23:05.472672","MEAN_MOTION":1.00272982,"ECCENTRICITY":3.69e-5,"INCLINATION":0.0171,"RA_OF_ASC_NODE":219.449,"ARG_OF_PERICENTER":70.6591,"MEAN_ANOMALY":151.5852,"EPHEMERIS_TYPE":0,"CLASSIFICATION_TYPE":"U","NORAD_CAT_ID":41945,"ELEMENT_SET_NO":999,"REV_AT_EPOCH":3349,"BSTAR":0,"MEAN_MOTION_DOT":-2.67e-6,"MEAN_MOTION_DDOT":0},{"OBJECT_NAME":"INTELSAT 35E (IS-35E)","OBJECT_ID":"2017-041A","EPOCH":"2026-04-05T19:25:35.232384","MEAN_MOTION":1.00272699,"ECCENTRICITY":0.0002131,"INCLINATION":0.0074,"RA_OF_ASC_NODE":252.3264,"ARG_OF_PERICENTER":125.6303,"MEAN_ANOMALY":73.038,"EPHEMERIS_TYPE":0,"CLASSIFICATION_TYPE":"U","NORAD_CAT_ID":42818,"ELEMENT_SET_NO":999,"REV_AT_EPOCH":3208,"BSTAR":0,"MEAN_MOTION_DOT":-2.36e-6,"MEAN_MOTION_DDOT":0},{"OBJECT_NAME":"INTELSAT 37E (IS-37E)","OBJECT_ID":"2017-059A","EPOCH":"2026-04-05T16:05:00.362112","MEAN_MOTION":1.00272795,"ECCENTRICITY":0.0002166,"INCLINATION":0.0169,"RA_OF_ASC_NODE":178.2893,"ARG_OF_PERICENTER":215.4388,"MEAN_ANOMALY":23.4815,"EPHEMERIS_TYPE":0,"CLASSIFICATION_TYPE":"U","NORAD_CAT_ID":42950,"ELEMENT_SET_NO":999,"REV_AT_EPOCH":3133,"BSTAR":0,"MEAN_MOTION_DOT":-1.39e-6,"MEAN_MOTION_DDOT":0},{"OBJECT_NAME":"AZERSPACE 2 (IS-38)","OBJECT_ID":"2018-074A","EPOCH":"2026-04-05T19:48:18.055008","MEAN_MOTION":1.00270667,"ECCENTRICITY":0.0001477,"INCLINATION":0.0174,"RA_OF_ASC_NODE":228.8255,"ARG_OF_PERICENTER":149.3555,"MEAN_ANOMALY":158.1248,"EPHEMERIS_TYPE":0,"CLASSIFICATION_TYPE":"U","NORAD_CAT_ID":43632,"ELEMENT_SET_NO":999,"REV_AT_EPOCH":2772,"BSTAR":0,"MEAN_MOTION_DOT":1.38e-6,"MEAN_MOTION_DDOT":0},{"OBJECT_NAME":"HORIZONS-3E","OBJECT_ID":"2018-074B","EPOCH":"2026-04-05T18:41:02.042304","MEAN_MOTION":1.0027225,"ECCENTRICITY":7.25e-5,"INCLINATION":0.0021,"RA_OF_ASC_NODE":56.3838,"ARG_OF_PERICENTER":273.6911,"MEAN_ANOMALY":313.2608,"EPHEMERIS_TYPE":0,"CLASSIFICATION_TYPE":"U","NORAD_CAT_ID":43633,"ELEMENT_SET_NO":999,"REV_AT_EPOCH":2761,"BSTAR":0,"MEAN_MOTION_DOT":-2.9e-7,"MEAN_MOTION_DDOT":0},{"OBJECT_NAME":"AT&T T-16","OBJECT_ID":"2019-034A","EPOCH":"2026-04-05T13:58:36.502752","MEAN_MOTION":1.00272177,"ECCENTRICITY":0.0001032,"INCLINATION":0.0248,"RA_OF_ASC_NODE":106.5131,"ARG_OF_PERICENTER":71.7144,"MEAN_ANOMALY":124.4517,"EPHEMERIS_TYPE":0,"CLASSIFICATION_TYPE":"U","NORAD_CAT_ID":44333,"ELEMENT_SET_NO":999,"REV_AT_EPOCH":2490,"BSTAR":0,"MEAN_MOTION_DOT":-1.14e-6,"MEAN_MOTION_DDOT":0},{"OBJECT_NAME":"INTELSAT 39 (IS-39)","OBJECT_ID":"2019-049B","EPOCH":"2026-04-05T20:57:40.761216","MEAN_MOTION":1.00271517,"ECCENTRICITY":3.78e-5,"INCLINATION":0.0052,"RA_OF_ASC_NODE":269.0256,"ARG_OF_PERICENTER":248.0484,"MEAN_ANOMALY":53.4551,"EPHEMERIS_TYPE":0,"CLASSIFICATION_TYPE":"U","NORAD_CAT_ID":44476,"ELEMENT_SET_NO":999,"REV_AT_EPOCH":2440,"BSTAR":0,"MEAN_MOTION_DOT":3.5e-7,"MEAN_MOTION_DDOT":0},{"OBJECT_NAME":"GALAXY 30 (G-30)","OBJECT_ID":"2020-056C","EPOCH":"2026-04-05T17:17:10.087296","MEAN_MOTION":1.00271383,"ECCENTRICITY":0.0002368,"INCLINATION":0.0146,"RA_OF_ASC_NODE":195.6358,"ARG_OF_PERICENTER":186.1086,"MEAN_ANOMALY":306.557,"EPHEMERIS_TYPE":0,"CLASSIFICATION_TYPE":"U","NORAD_CAT_ID":46114,"ELEMENT_SET_NO":999,"REV_AT_EPOCH":2056,"BSTAR":0,"MEAN_MOTION_DOT":0,"MEAN_MOTION_DDOT":0},{"OBJECT_NAME":"GALAXY 33 (G-33)","OBJECT_ID":"2022-128A","EPOCH":"2026-04-05T17:14:47.813280","MEAN_MOTION":1.00271581,"ECCENTRICITY":0.0001999,"INCLINATION":0.0115,"RA_OF_ASC_NODE":214.6479,"ARG_OF_PERICENTER":169.1528,"MEAN_ANOMALY":295.9157,"EPHEMERIS_TYPE":0,"CLASSIFICATION_TYPE":"U","NORAD_CAT_ID":54026,"ELEMENT_SET_NO":999,"REV_AT_EPOCH":1301,"BSTAR":0,"MEAN_MOTION_DOT":0,"MEAN_MOTION_DDOT":0},{"OBJECT_NAME":"GALAXY 34 (G-34)","OBJECT_ID":"2022-128B","EPOCH":"2026-04-05T15:33:18.400896","MEAN_MOTION":1.00273899,"ECCENTRICITY":0.0001425,"INCLINATION":0.0194,"RA_OF_ASC_NODE":243.4748,"ARG_OF_PERICENTER":123.9243,"MEAN_ANOMALY":290.861,"EPHEMERIS_TYPE":0,"CLASSIFICATION_TYPE":"U","NORAD_CAT_ID":54027,"ELEMENT_SET_NO":999,"REV_AT_EPOCH":1318,"BSTAR":0,"MEAN_MOTION_DOT":6.0e-7,"MEAN_MOTION_DDOT":0}]
