INTELSAT 30 (IS-30)     
1 40271U 14062A   26095.51221155 -.00000149  00000+0  00000+0 0  9994
2 40271   0.0127 223.2415 0001504  33.8601  26.0730  1.00272042  6064
DIRECTV 14              
1 40333U 14078B   26095.58271360 -.00000124  00000+0  00000+0 0  9993
2 40333   0.0111 180.3848 0000776 300.5033 183.5263  1.00271427 41315
DIRECTV 15              
1 40663U 15026A   26095.58202025 -.00000101  00000+0  00000+0 0  9990
2 40663   0.0323  93.6151 0000548  65.3431 141.5706  1.00272151 39738
SKY MEXICO-1            
1 40664U 15026B   26095.80059554 -.00000232  00000+0  00000+0 0  9998
2 40664   0.0221 110.8005 0002633 291.2999   1.3998  1.00271575 39726
INTELSAT 34 (IS-34)     
1 40874U 15039A   26095.23485651 -.00000284  00000+0  00000+0 0  9990
2 40874   0.0228 272.6147 0000056 208.6149 101.3653  1.00271776 38895
INTELSAT 31 (IS-31)     
1 41581U 16035A   26095.58358025 -.00000149  00000+0  00000+0 0  9995
2 41581   0.0128 223.2111 0001503  34.4999  51.2270  1.00272246 35954
INTELSAT 36 (IS-36)     
1 41747U 16053A   26095.61590707 -.00000023  00000+0  00000+0 0  9999
2 41747   0.0117 234.1921 0001038 101.2785 148.6671  1.00271531 35238
INTELSAT 32E (IS-32E)   
1 41945U 17007B   26095.80770223 -.00000267  00000+0  00000+0 0  9993
2 41945   0.0171 219.4490 0000369  70.6591 151.5852  1.00272982 33496
INTELSAT 35E (IS-35E)   
1 42818U 17041A   26095.80943556 -.00000236  00000+0  00000+0 0  9998
2 42818   0.0074 252.3264 0002131 125.6303  73.0380  1.00272699 32087
INTELSAT 37E (IS-37E)   
1 42950U 17059A   26095.67014308 -.00000139  00000+0  00000+0 0  9995
2 42950   0.0169 178.2893 0002166 215.4388  23.4815  1.00272795 31338
AZERSPACE 2 (IS-38)     
1 43632U 18074A   26095.82520897  .00000138  00000+0  00000+0 0  9991
2 43632   0.0174 228.8255 0001477 149.3555 158.1248  1.00270667 27721
HORIZONS-3E             
1 43633U 18074B   26095.77849586 -.00000029  00000+0  00000+0 0  9995
2 43633   0.0021  56.3838 0000725 273.6911 313.2608  1.00272250 27618
AT&T T-16               
1 44333U 19034A   26095.58236693 -.00000114  00000+0  00000+0 0  9993
2 44333   0.0248 106.5131 0001032  71.7144 124.4517  1.00272177 24906
INTELSAT 39 (IS-39)     
1 44476U 19049B   26095.87338844  .00000035  00000+0  00000+0 0  9991
2 44476   0.0052 269.0256 0000378 248.0484  53.4551  1.00271517 24409
GALAXY 30 (G-30)        
1 46114U 20056C   26095.72025564  .00000000  00000+0  00000+0 0  9990
2 46114   0.0146 195.6358 0002368 186.1086 306.5570  1.00271383 20569
GALAXY 33 (G-33)        
1 54026U 22128A   26095.71860895  .00000000  00000+0  00000+0 0  9996
2 54026   0.0115 214.6479 0001999 169.1528 295.9157  1.00271581 13017
GALAXY 34 (G-34)        
1 54027U 22128B   26095.64812964  .00000060  00000+0  00000+0 0  9999
2 54027   0.0194 243.4748 0001425 123.9243 290.8610  1.00273899 13180
